[{"OBJECT_NAME":"HULIANWANG DIGUI-48","OBJECT_ID":"2025-162J","EPOCH":"2026-03-09T22:30:29.416608","MEAN_MOTION":13.29332702,"ECCENTRICITY":0.00010353,"INCLINATION":50.0025,"RA_OF_ASC_NODE":261.4284,"ARG_OF_PERICENTER":91.4402,"MEAN_ANOMALY":268.6588,"EPHEMERIS_TYPE":0,"CLASSIFICATION_TYPE":"U","NORAD_CAT_ID":65051,"ELEMENT_SET_NO":999,"REV_AT_EPOCH":3016,"BSTAR":0.00011837488,"MEAN_MOTION_DOT":-6.9e-7,"MEAN_MOTION_DDOT":0},{"OBJECT_NAME":"DELTA 1 DEB","OBJECT_ID":"1975-052CS","EPOCH":"2026-03-09T17:48:42.801984","MEAN_MOTION":13.33581484,"ECCENTRICITY":0.00611601,"INCLINATION":100.2163,"RA_OF_ASC_NODE":334.8453,"ARG_OF_PERICENTER":171.5006,"MEAN_ANOMALY":254.9263,"EPHEMERIS_TYPE":0,"CLASSIFICATION_TYPE":"U","NORAD_CAT_ID":21372,"ELEMENT_SET_NO":999,"REV_AT_EPOCH":69290,"BSTAR":0.000194744,"MEAN_MOTION_DOT":5.2e-7,"MEAN_MOTION_DDOT":0}]
